OSCAR 7 (AO-7)          
1 07530U 74089B   26178.54008376 -.00000028  00000+0  11736-3 0  9991
2 07530 101.9899 191.8946 0012647 110.9590  56.0288 12.53698269361816
PHASE 3B (AO-10)        
1 14129U 83058B   26177.59526761 -.00000217  00000+0  00000+0 0  9994
2 14129  25.9202 218.0092 6007622 118.2548 314.1516  2.05872938295688
UOSAT 2 (UO-11)         
1 14781U 84021B   26178.49069808  .00001184  00000+0  12594-3 0  9991
2 14781  97.8062 143.9504 0008518 140.7030 219.4808 14.90807786258667
LUSAT (LO-19)           
1 20442U 90005G   26178.50772595  .00000116  00000+0  57951-4 0  9998
2 20442  98.8846 200.5976 0011725 170.5481 189.5925 14.34126104903870
EYESAT A (AO-27)        
1 22825U 93061C   26178.13882514  .00000087  00000+0  50002-4 0  9999
2 22825  98.6877 245.5486 0009478  74.1419 286.0808 14.30944709708428
ITAMSAT (IO-26)         
1 22826U 93061D   26178.46478241  .00000089  00000+0  50381-4 0  9996
2 22826  98.6825 245.7929 0009852  58.2227 301.9914 14.31371971708782
RADIO ROSTO (RS15)      
1 23439U 94085A   26178.49260453 -.00000052  00000+0 -26292-3 0  9996
2 23439  64.8183 286.5498 0156293   1.9723 358.1786 11.27583400297066
JAS-2 (FO-29)           
1 24278U 96046B   26178.51398295 -.00000017  00000+0  16290-4 0  9994
2 24278  98.5231  25.9709 0350889  69.7149 294.1339 13.53274814474569
TECHSAT 1B (GO-32)      
1 25397U 98043D   26178.46034744  .00000055  00000+0  44120-4 0  9990
2 25397  99.0071 171.4783 0001573 143.8362 216.2923 14.24430297452796
ISS (ZARYA)             
1 25544U 98067A   26178.50947090  .00006280  00000+0  12016-3 0  9996
2 25544  51.6322 248.9966 0004278 238.4942 121.5629 15.49454046573359
PCSAT (NO-44)           
1 26931U 01043C   26178.49642057  .00000087  00000+0  63336-4 0  9999
2 26931  67.0492 217.6076 0006036 265.2243  94.8169 14.31959230291926
SAUDISAT 1C (SO-50)     
1 27607U 02058C   26178.47237572  .00000908  00000+0  12441-3 0  9999
2 27607  64.5520  97.1634 0075023 260.5582  98.7038 14.83067272265986
CUTE-1 (CO-55)          
1 27844U 03031E   26178.29336882  .00000290  00000+0  14447-3 0  9990
2 27844  98.6736 186.7252 0010153 149.6738 210.5030 14.24341593193117
CUBESAT XI-IV (CO-57)   
1 27848U 03031J   26177.93548419  .00000243  00000+0  12580-3 0  9999
2 27848  98.6768 186.0767 0009653 168.4758 191.6643 14.23625736192766
MOZHAETS 4 (RS22)       
1 27939U 03042A   26178.53847855  .00000646  00000+0  10778-3 0  9999
2 27939  98.3470   3.1900 0010081 232.4514 212.2707 14.73483611217073
CUBESAT XI-V            
1 28895U 05043F   26178.39064753  .00001463  00000+0  23760-3 0  9999
2 28895  98.2993 334.2271 0014350 168.3542 191.7999 14.72657931103259
CUTE-1.7+APD II (CO-65) 
1 32785U 08021C   26178.52352753  .00004431  00000+0  28008-3 0  9994
2 32785  97.8271 160.1575 0008687   6.7234 353.4109 15.09546349986753
SEEDS II (CO-66)        
1 32791U 08021J   26178.51465772  .00017245  00000+0  54139-3 0  9997
2 32791  97.7513 176.9075 0000665 208.0671 152.0534 15.33093667988875
YUBILEINY (RS30)        
1 32953U 08025A   26178.48013137  .00000094  00000+0  60448-3 0  9995
2 32953  82.5044 349.0364 0018562 290.2283  69.6800 12.43180270820977
KKS-1 (KISEKI)          
1 33499U 09002H   26178.51138144  .00001269  00000+0  16245-3 0  9998
2 33499  98.1186 101.1173 0006396 254.8562 105.1944 14.83148442937724
SWISSCUBE               
1 35932U 09051B   26178.49963333  .00000936  00000+0  19434-3 0  9992
2 35932  98.4028  86.5674 0006714 169.2513 190.8833 14.62499761890666
BEESAT-1                
1 35933U 09051C   26177.69301354  .00000752  00000+0  16076-3 0  9998
2 35933  98.3957  85.3622 0004848 183.3217 176.7952 14.61734342890572
ITUPSAT1                
1 35935U 09051E   26177.69222981  .00000700  00000+0  15443-3 0  9998
2 35935  98.4042  84.5432 0006750 199.9772 160.1164 14.60453570890126
XIWANG-1 (HOPE-1)       
1 36122U 09072B   26178.50376242 -.00000214  00000+0 -44383-3 0  9998
2 36122 100.4023 132.1711 0007050 206.1996 153.8761 13.16439220794368
O/OREOS (USA 219)       
1 37224U 10062C   26178.37540786  .00002313  00000+0  22362-3 0  9997
2 37224  71.9714  57.2611 0012942  41.3128 318.9019 14.93785377118160
JUGNU                   
1 37839U 11058B   26178.52414397  .00000404  00000+0  71023-4 0  9998
2 37839  19.9596 245.6289 0018437 190.0479 199.3763 14.13779214760493
SRMSAT                  
1 37841U 11058D   26178.20632691  .00000372  00000+0  58207-4 0  9998
2 37841  19.9735 358.8265 0011727 314.5587 200.6524 14.11577536759232
STRAND-1                
1 39090U 13009E   26178.49925934  .00000279  00000+0  10827-3 0  9991
2 39090  98.3923 358.4799 0008308 192.1718 167.9269 14.37169120698546
ZACUBE-1 (TSHEPISOSAT)  
1 39417U 13066B   26178.47211134  .00002958  00000+0  23092-3 0  9999
2 39417  97.8046 140.8617 0042234 212.7148 147.1459 15.01242239682272
GOMX-1                  
1 39430U 13066Q   26178.53599405  .00002079  00000+0  31566-3 0  9990
2 39430  97.6484  18.3455 0129750  44.7085 316.4494 14.69495147671439
